NEXTSAT-1               
1 43811U 18099BF  26068.68342010  .00004546  00000+0  29857-3 0  9992
2 43811  97.4203 114.8574 0011320 323.9610  36.0854 15.08057555396886
STARLINK-3231           
1 49744U 21115W   26068.49575278 -.00002981  00000+0 -16926-3 0  9995
2 49744  53.2174 149.8860 0001392  84.1838 275.9313 15.08847702235502
